start=new Date('2022-08-08T00:00:00.000Z').valueOf();
sats=[{"NORAD_CAT_ID":"49439","APOAPSIS":"540.915","OBJECT_TYPE":"PAYLOAD","LAUNCH_DATE":"2021-11-13","CENTER_NAME":"EARTH","PERIOD":"95.437","ELEMENT_SET_NO":"999","EPHEMERIS_TYPE":"0","RA_OF_ASC_NODE":"329.8604","SITE":"AFETR","BSTAR":"-0.00003526900000","REF_FRAME":"TEME","TLE_LINE2":"2 49439  53.2183 329.8604 0001697  46.3069 313.8063 15.08841473 42243","MEAN_MOTION":"15.08841473","TIME_SYSTEM":"UTC","OBJECT_ID":"2021-104AH","MEAN_MOTION_DDOT":"0.0000000000000","CLASSIFICATION_TYPE":"U","RCS_SIZE":"LARGE","MEAN_MOTION_DOT":"-0.00000849","SEMIMAJOR_AXIS":"6917.876","EPOCH":"2022-08-07T17:01:50.923488","GP_ID":"209771537","MEAN_ANOMALY":"313.8063","ECCENTRICITY":"0.00016970","PERIAPSIS":"538.567","MEAN_ELEMENT_THEORY":"SGP4","TLE_LINE1":"1 49439U 21104AH  22219.70961717 -.00000849  00000-0 -35269-4 0  9993","FILE":"3531523","REV_AT_EPOCH":"4224","DECAY_DATE":null,"OBJECT_NAME":"STARLINK-3108","COUNTRY_CODE":"US","INCLINATION":"53.2183","ARG_OF_PERICENTER":"46.3069"},{"MEAN_MOTION":"15.08838412","TIME_SYSTEM":"UTC","REF_FRAME":"TEME","TLE_LINE2":"2 49440  53.2180 330.3957 0001705  51.2323 308.8821 15.08838412 41130","EPHEMERIS_TYPE":"0","RA_OF_ASC_NODE":"330.3957","SITE":"AFETR","BSTAR":"-0.00005448600000","ELEMENT_SET_NO":"999","LAUNCH_DATE":"2021-11-13","CENTER_NAME":"EARTH","PERIOD":"95.438","NORAD_CAT_ID":"49440","APOAPSIS":"540.930","OBJECT_TYPE":"PAYLOAD","COUNTRY_CODE":"US","OBJECT_NAME":"STARLINK-3105","INCLINATION":"53.2180","ARG_OF_PERICENTER":"51.2323","REV_AT_EPOCH":"4113","DECAY_DATE":null,"TLE_LINE1":"1 49440U 21104AJ  22219.59185899 -.00001155  00000-0 -54486-4 0  9994","FILE":"3531552","PERIAPSIS":"538.571","MEAN_ELEMENT_THEORY":"SGP4","EPOCH":"2022-08-07T14:12:16.616736","ECCENTRICITY":"0.00017050","GP_ID":"209795629","MEAN_ANOMALY":"308.8821","RCS_SIZE":"LARGE","SEMIMAJOR_AXIS":"6917.885","MEAN_MOTION_DOT":"-0.00001155","OBJECT_ID":"2021-104AJ","MEAN_MOTION_DDOT":"0.0000000000000","CLASSIFICATION_TYPE":"U"},{"REV_AT_EPOCH":"4113","DECAY_DATE":null,"COUNTRY_CODE":"US","OBJECT_NAME":"STARLINK-3128","INCLINATION":"53.2190","ARG_OF_PERICENTER":"73.9996","TLE_LINE1":"1 49441U 21104AK  22219.57345553  .00000978  00000-0  79536-4 0  9991","FILE":"3531552","EPOCH":"2022-08-07T13:45:46.557792","MEAN_ANOMALY":"286.1170","GP_ID":"209795869","ECCENTRICITY":"0.00015830","PERIAPSIS":"538.636","MEAN_ELEMENT_THEORY":"SGP4","OBJECT_ID":"2021-104AK","MEAN_MOTION_DDOT":"0.0000000000000","CLASSIFICATION_TYPE":"U","RCS_SIZE":"LARGE","MEAN_MOTION_DOT":"0.00000978","SEMIMAJOR_AXIS":"6917.867","MEAN_MOTION":"15.08844541","TIME_SYSTEM":"UTC","REF_FRAME":"TEME","TLE_LINE2":"2 49441  53.2190 330.4709 0001583  73.9996 286.1170 15.08844541 41134","ELEMENT_SET_NO":"999","EPHEMERIS_TYPE":"0","RA_OF_ASC_NODE":"330.4709","BSTAR":"0.00007953600000","SITE":"AFETR","NORAD_CAT_ID":"49441","APOAPSIS":"540.827","OBJECT_TYPE":"PAYLOAD","LAUNCH_DATE":"2021-11-13","PERIOD":"95.437","CENTER_NAME":"EARTH"},{"EPHEMERIS_TYPE":"0","RA_OF_ASC_NODE":"330.4012","SITE":"AFETR","BSTAR":"-0.00002949600000","ELEMENT_SET_NO":"999","LAUNCH_DATE":"2021-11-13","PERIOD":"95.438","CENTER_NAME":"EARTH","NORAD_CAT_ID":"49442","APOAPSIS":"540.807","OBJECT_TYPE":"PAYLOAD","MEAN_MOTION":"15.08837275","TIME_SYSTEM":"UTC","REF_FRAME":"TEME","TLE_LINE2":"2 49442  53.2170 330.4012 0001523  41.1521 318.9586 15.08837275 41136","PERIAPSIS":"538.700","MEAN_ELEMENT_THEORY":"SGP4","EPOCH":"2022-08-07T14:06:58.580064","GP_ID":"209794632","ECCENTRICITY":"0.00015230","MEAN_ANOMALY":"318.9586","RCS_SIZE":"LARGE","SEMIMAJOR_AXIS":"6917.889","MEAN_MOTION_DOT":"-0.00000757","OBJECT_ID":"2021-104AL","MEAN_MOTION_DDOT":"0.0000000000000","CLASSIFICATION_TYPE":"U","OBJECT_NAME":"STARLINK-3098","COUNTRY_CODE":"US","INCLINATION":"53.2170","ARG_OF_PERICENTER":"41.1521","REV_AT_EPOCH":"4113","DECAY_DATE":null,"TLE_LINE1":"1 49442U 21104AL  22219.58817801 -.00000757  00000-0 -29496-4 0  9990","FILE":"3531552"},{"SITE":"AFETR","BSTAR":"0.00012113000000","RA_OF_ASC_NODE":"329.3013","EPHEMERIS_TYPE":"0","ELEMENT_SET_NO":"999","PERIOD":"95.437","CENTER_NAME":"EARTH","LAUNCH_DATE":"2021-11-13","OBJECT_TYPE":"PAYLOAD","NORAD_CAT_ID":"49443","APOAPSIS":"540.774","MEAN_MOTION":"15.08846987","TIME_SYSTEM":"UTC","TLE_LINE2":"2 49443  53.2174 329.3013 0001518  54.3899 305.7235 15.08846987 42245","REF_FRAME":"TEME","PERIAPSIS":"538.674","MEAN_ELEMENT_THEORY":"SGP4","GP_ID":"209771182","ECCENTRICITY":"0.00015180","MEAN_ANOMALY":"305.7235","EPOCH":"2022-08-07T20:02:01.282848","MEAN_MOTION_DOT":"0.00001641","SEMIMAJOR_AXIS":"6917.859","RCS_SIZE":"LARGE","CLASSIFICATION_TYPE":"U","OBJECT_ID":"2021-104AM","MEAN_MOTION_DDOT":"0.0000000000000","OBJECT_NAME":"STARLINK-3136","COUNTRY_CODE":"US","INCLINATION":"53.2174","ARG_OF_PERICENTER":"54.3899","REV_AT_EPOCH":"4224","DECAY_DATE":null,"TLE_LINE1":"1 49443U 21104AM  22219.83473707  .00001641  00000-0  12113-3 0  9990","FILE":"3531524"},{"LAUNCH_DATE":"2021-11-13","CENTER_NAME":"EARTH","PERIOD":"95.438","NORAD_CAT_ID":"49444","APOAPSIS":"540.804","OBJECT_TYPE":"PAYLOAD","EPHEMERIS_TYPE":"0","RA_OF_ASC_NODE":"330.4238","BSTAR":"0.00008128300000","SITE":"AFETR","ELEMENT_SET_NO":"999","REF_FRAME":"TEME","TLE_LINE2":"2 49444  53.2177 330.4238 0001525  55.1597 304.9539 15.08838664 41131","MEAN_MOTION":"15.08838664","TIME_SYSTEM":"UTC","RCS_SIZE":"LARGE","SEMIMAJOR_AXIS":"6917.884","MEAN_MOTION_DOT":"0.00001006","OBJECT_ID":"2021-104AN","MEAN_MOTION_DDOT":"0.0000000000000","CLASSIFICATION_TYPE":"U","PERIAPSIS":"538.694","MEAN_ELEMENT_THEORY":"SGP4","EPOCH":"2022-08-07T14:01:40.510560","ECCENTRICITY":"0.00015250","GP_ID":"209795129","MEAN_ANOMALY":"304.9539","TLE_LINE1":"1 49444U 21104AN  22219.58449665  .00001006  00000-0  81283-4 0  9999","FILE":"3531552","INCLINATION":"53.2177","COUNTRY_CODE":"US","OBJECT_NAME":"STARLINK-3126","ARG_OF_PERICENTER":"55.1597","REV_AT_EPOCH":"4113","DECAY_DATE":null},{"NORAD_CAT_ID":"49445","APOAPSIS":"540.669","OBJECT_TYPE":"PAYLOAD","LAUNCH_DATE":"2021-11-13","PERIOD":"95.438","CENTER_NAME":"EARTH","ELEMENT_SET_NO":"999","RA_OF_ASC_NODE":"340.3640","EPHEMERIS_TYPE":"0","BSTAR":"0.00006600000000","SITE":"AFETR","REF_FRAME":"TEME","TLE_LINE2":"2 49445  53.2175 340.3640 0001313  73.5514 286.5622 15.08835024 40993","MEAN_MOTION":"15.08835024","TIME_SYSTEM":"UTC","OBJECT_ID":"2021-104AP","MEAN_MOTION_DDOT":"0.0000000000000","CLASSIFICATION_TYPE":"U","RCS_SIZE":"LARGE","MEAN_MOTION_DOT":"0.00000763","SEMIMAJOR_AXIS":"6917.896","EPOCH":"2022-08-07T14:21:32.942016","ECCENTRICITY":"0.00013130","GP_ID":"209795369","MEAN_ANOMALY":"286.5622","PERIAPSIS":"538.852","MEAN_ELEMENT_THEORY":"SGP4","TLE_LINE1":"1 49445U 21104AP  22219.59829794  .00000763  00000-0  66000-4 0  9995","FILE":"3531552","REV_AT_EPOCH":"4099","DECAY_DATE":null,"COUNTRY_CODE":"US","OBJECT_NAME":"STARLINK-3122","INCLINATION":"53.2175","ARG_OF_PERICENTER":"73.5514"},{"REF_FRAME":"TEME","TLE_LINE2":"2 49446  53.2173 329.8439 0001431  69.2607 290.8538 15.08843234 41151","MEAN_MOTION":"15.08843234","TIME_SYSTEM":"UTC","APOAPSIS":"540.725","NORAD_CAT_ID":"49446","OBJECT_TYPE":"PAYLOAD","LAUNCH_DATE":"2021-11-13","CENTER_NAME":"EARTH","PERIOD":"95.437","ELEMENT_SET_NO":"999","RA_OF_ASC_NODE":"329.8439","EPHEMERIS_TYPE":"0","SITE":"AFETR","BSTAR":"0.00004693200000","TLE_LINE1":"1 49446U 21104AQ  22219.71329369  .00000459  00000-0  46932-4 0  9997","FILE":"3531552","REV_AT_EPOCH":"4115","DECAY_DATE":null,"COUNTRY_CODE":"US","INCLINATION":"53.2173","OBJECT_NAME":"STARLINK-3099","ARG_OF_PERICENTER":"69.2607","OBJECT_ID":"2021-104AQ","MEAN_MOTION_DDOT":"0.0000000000000","CLASSIFICATION_TYPE":"U","RCS_SIZE":"LARGE","SEMIMAJOR_AXIS":"6917.871","MEAN_MOTION_DOT":"0.00000459","EPOCH":"2022-08-07T17:07:08.574816","GP_ID":"209794132","MEAN_ANOMALY":"290.8538","ECCENTRICITY":"0.00014310","PERIAPSIS":"538.746","MEAN_ELEMENT_THEORY":"SGP4"},{"CLASSIFICATION_TYPE":"U","OBJECT_ID":"2021-104AR","MEAN_MOTION_DDOT":"0.0000000000000","SEMIMAJOR_AXIS":"6917.849","MEAN_MOTION_DOT":"0.00004463","RCS_SIZE":"LARGE","ECCENTRICITY":"0.00017870","GP_ID":"209794883","MEAN_ANOMALY":"305.9736","EPOCH":"2022-08-07T17:21:43.613280","PERIAPSIS":"538.478","MEAN_ELEMENT_THEORY":"SGP4","TLE_LINE1":"1 49447U 21104AR  22219.72342145  .00004463  00000-0  29826-3 0  9997","FILE":"3531552","REV_AT_EPOCH":"4101","DECAY_DATE":null,"OBJECT_NAME":"STARLINK-3115","COUNTRY_CODE":"US","INCLINATION":"53.2167","ARG_OF_PERICENTER":"54.1421","OBJECT_TYPE":"PAYLOAD","NORAD_CAT_ID":"49447","APOAPSIS":"540.951","PERIOD":"95.437","CENTER_NAME":"EARTH","LAUNCH_DATE":"2021-11-13","ELEMENT_SET_NO":"999","SITE":"AFETR","BSTAR":"0.00029826000000","RA_OF_ASC_NODE":"339.8047","EPHEMERIS_TYPE":"0","TLE_LINE2":"2 49447  53.2167 339.8047 0001787  54.1421 305.9736 15.08850133 41011","REF_FRAME":"TEME","MEAN_MOTION":"15.08850133","TIME_SYSTEM":"UTC"},{"REF_FRAME":"TEME","TLE_LINE2":"2 49448  53.2177 339.7448 0001636  61.3980 298.7176 15.08846902 41016","TIME_SYSTEM":"UTC","MEAN_MOTION":"15.08846902","LAUNCH_DATE":"2021-11-13","CENTER_NAME":"EARTH","PERIOD":"95.437","NORAD_CAT_ID":"49448","APOAPSIS":"540.856","OBJECT_TYPE":"PAYLOAD","EPHEMERIS_TYPE":"0","RA_OF_ASC_NODE":"339.7448","SITE":"AFETR","BSTAR":"0.00015431000000","ELEMENT_SET_NO":"999","FILE":"3531552","TLE_LINE1":"1 49448U 21104AS  22219.73445015  .00002169  00000-0  15431-3 0  9997","ARG_OF_PERICENTER":"61.3980","INCLINATION":"53.2177","COUNTRY_CODE":"US","OBJECT_NAME":"STARLINK-3097","DECAY_DATE":null,"REV_AT_EPOCH":"4101","RCS_SIZE":"LARGE","SEMIMAJOR_AXIS":"6917.859","MEAN_MOTION_DOT":"0.00002169","MEAN_MOTION_DDOT":"0.0000000000000","OBJECT_ID":"2021-104AS","CLASSIFICATION_TYPE":"U","MEAN_ELEMENT_THEORY":"SGP4","PERIAPSIS":"538.593","EPOCH":"2022-08-07T17:37:36.492960","GP_ID":"209795630","MEAN_ANOMALY":"298.7176","ECCENTRICITY":"0.00016360"}];
